{"type": "Feature","bbox": [7.36575,43.71797,7.43745,43.76351],"geometry": {"type": "Polygon","coordinates": [[[7.43745,43.74336,0.0],[7.42625,43.75546,438.0325],[7.40697,43.76351,702.6906],[7.38754,43.7579,440.2461],[7.37266,43.74583,338.1711],[7.36726,43.73412,484.6873],[7.36575,43.72273,114.4469],[7.38072,43.71927,0.0],[7.40432,43.71797,0.0],[7.41796,43.7309,31.8391],[7.43285,43.73985,0.0],[7.43745,43.74336,0.0]]]}
,"properties": {"ISO3166-1-Alpha-3": "MCO","country": "Monaco","name": "Monaco","area_km2": 18.84152,"hist_schema_id": "Elevation0-9000","hist_area_km2": {"0": 1.13376,"25": 0.62816,"50": 0.47493,"75": 0.62812,"100": 0.56686,"125": 0.62812,"150": 0.55152,"175": 0.47491,"200": 0.67407,"225": 0.62811,"250": 0.56683,"275": 0.8119,"300": 0.62808,"325": 0.674,"350": 0.79656,"375": 0.82716,"400": 0.94965,"425": 1.22535,"450": 0.88837,"475": 0.91899,"500": 0.94968,"525": 0.5514,"550": 0.71988,"575": 0.53608,"600": 0.44419,"625": 0.26038,"650": 0.18379,"675": 0.12252,"700": 0.09188,"725": 0.13782,"750": 0.07657,"775": 0.06125,"800": 0.03063}}}